      2.10          N: GNSS NAV DATA                        RINEX VERSION / TYPE
fic2rin                                 01/18/2020 00:19:55 PGM / RUN BY / DATE
                                                            END OF HEADER
11 20  1 17 12  0  0.0-3.876420669258e-04 1.080024958355e-11 0.000000000000e+00
    4.300000000000e+01-2.156250000000e+00 5.530587514026e-09-1.567769531734e+00
    1.136213541031e-07 1.587828481570e-02 8.657574653625e-06 5.152869277954e+03
    4.752000000000e+05-2.942979335785e-07-1.297111545422e+00 2.533197402954e-07
    9.115559760910e-01 1.912500000000e+02 1.975106963796e+00-8.707862717435e-09
    2.042942239602e-10 1.000000000000e+00 2.088000000000e+03 0.000000000000e+00
    2.400000000000e+00 0.000000000000e+00-1.257285475731e-08 4.300000000000e+01
    4.680000000000e+05 4.000000000000e+00
12 20  1 17 12  0  0.0 1.613926142454e-04-4.092726157978e-12 0.000000000000e+00
    8.200000000000e+01 2.687500000000e+00 4.244819670920e-09-2.220189227313e+00
    1.750886440277e-07 7.834917749278e-03 5.142763257027e-06 5.153760585785e+03
    4.752000000000e+05 5.029141902924e-08-2.862916893123e+00-4.656612873077e-08
    9.802417120076e-01 2.896250000000e+02 1.098146570373e+00-8.006047769739e-09
   -1.475061442230e-10 1.000000000000e+00 2.088000000000e+03 0.000000000000e+00
    2.400000000000e+00 0.000000000000e+00-1.257285475731e-08 8.200000000000e+01
    4.680000000000e+05 4.000000000000e+00
27 20  1 17 12  0  0.0-1.837671734393e-04-1.125499693444e-11 0.000000000000e+00
    9.600000000000e+01-3.215625000000e+01 4.041596920163e-09 1.296377576015e+00
   -1.678243279457e-06 7.675125962123e-03 8.372589945793e-06 5.153661958694e+03
    4.752000000000e+05-5.960464477539e-08-1.886733393402e+00 3.539025783539e-08
    9.783312668070e-01 2.279062500000e+02 4.981477251208e-01-7.999618930524e-09
   -1.914365455291e-10 1.000000000000e+00 2.088000000000e+03 0.000000000000e+00
    2.400000000000e+00 0.000000000000e+00 1.396983861923e-09 9.600000000000e+01
    4.680000000000e+05 4.000000000000e+00
25 20  1 17 12  0  0.0-1.582736149430e-05 7.958078640513e-13 0.000000000000e+00
    6.100000000000e+01 9.500000000000e+00 4.516616706644e-09-2.560179294544e+00
    5.029141902924e-07 8.929145056754e-03 4.883855581284e-06 5.153602006912e+03
    4.752000000000e+05 1.117587089539e-08-2.930159093162e+00-5.215406417847e-08
    9.675955035051e-01 2.889687500000e+02 8.891667712165e-01-8.145339286076e-09
   -8.643217167545e-11 1.000000000000e+00 2.088000000000e+03 0.000000000000e+00
    2.400000000000e+00 0.000000000000e+00 5.587935447693e-09 6.100000000000e+01
    4.680000000000e+05 4.000000000000e+00
23 20  1 17 12  0  0.0-1.425272785127e-04 2.501110429876e-12 0.000000000000e+00
    4.600000000000e+01-2.212500000000e+01 5.059496462622e-09-1.750162175794e-01
   -1.108273863792e-06 1.333931833506e-02 9.721145033836e-06 5.153685401917e+03
    4.752000000000e+05-8.009374141693e-08 1.234032447433e+00 1.527369022369e-07
    9.431634271597e-01 1.821250000000e+02-2.206356173854e+00-8.511068805893e-09
   -2.278666344171e-10 1.000000000000e+00 2.088000000000e+03 0.000000000000e+00
    2.400000000000e+00 0.000000000000e+00-2.002343535423e-08 4.600000000000e+01
    4.680000000000e+05 4.000000000000e+00
21 20  1 17 12  0  0.0-5.445815622807e-05 5.570655048359e-12 0.000000000000e+00
    4.600000000000e+01 9.531250000000e+00 4.573404786381e-09-2.743678606873e+00
    4.954636096954e-07 2.481620875187e-02 8.039176464081e-06 5.153583698273e+03
    4.752000000000e+05 2.756714820862e-07-9.015316664240e-01 2.868473529816e-07
    9.514681878063e-01 2.097187500000e+02-1.377053435323e+00-7.821397221160e-09
    5.203788187237e-10 1.000000000000e+00 2.088000000000e+03 0.000000000000e+00
    2.400000000000e+00 0.000000000000e+00-1.024454832077e-08 4.600000000000e+01
    4.680000000000e+05 4.000000000000e+00
17 20  1 17 12  0  0.0 2.001477405429e-04 6.593836587854e-12 0.000000000000e+00
    8.600000000000e+01-2.693750000000e+01 3.896948037813e-09 1.199546702118e+00
   -1.501291990280e-06 1.344366220292e-02 9.017065167427e-06 5.153637691498e+03
    4.752000000000e+05-2.309679985046e-07-1.829135988433e+00-2.011656761169e-07
    9.840550478998e-01 2.183125000000e+02-1.662377307042e+00-7.980332412877e-09
   -5.428797559780e-11 1.000000000000e+00 2.088000000000e+03 0.000000000000e+00
    3.400000000000e+00 0.000000000000e+00-1.117587089539e-08 8.600000000000e+01
    4.680000000000e+05 4.000000000000e+00
26 20  1 17 12  0  0.0 1.291530206800e-04 7.958078640513e-12 0.000000000000e+00
    4.800000000000e+01 2.603125000000e+01 4.979493130162e-09 3.103564099582e+00
    1.382082700729e-06 4.548907512799e-03 4.786998033524e-06 5.153731451035e+03
    4.752000000000e+05-6.332993507385e-08-2.963015320361e+00 3.539025783539e-08
    9.487426587799e-01 2.828125000000e+02 1.691252308019e-01-8.476781663410e-09
   -9.678974596714e-11 1.000000000000e+00 2.088000000000e+03 0.000000000000e+00
    2.400000000000e+00 0.000000000000e+00 7.450580596924e-09 4.800000000000e+01
    4.680000000000e+05 4.000000000000e+00
20 20  1 17 12  0  0.0 5.278047174215e-04 0.000000000000e+00 0.000000000000e+00
    3.100000000000e+01-3.206250000000e+01 5.563088867838e-09-1.372025491215e+00
   -1.702457666397e-06 5.079021095298e-03 5.863606929779e-06 5.153618825912e+03
    4.752000000000e+05-5.960464477539e-08 8.062122370614e-02-6.705522537231e-08
    9.330898785959e-01 2.538750000000e+02 2.560884219175e+00-8.700005247282e-09
    1.507205638307e-10 1.000000000000e+00 2.088000000000e+03 0.000000000000e+00
    2.400000000000e+00 0.000000000000e+00-8.847564458847e-09 3.100000000000e+01
    4.680000000000e+05 4.000000000000e+00
22 20  1 17 12  0  0.0-7.822052575648e-04-1.250555214938e-12 0.000000000000e+00
    9.900000000000e+01-2.965625000000e+01 5.722024059555e-09 3.489750174902e-01
   -1.557171344757e-06 6.991992937401e-03 5.722045898438e-06 5.153592618942e+03
    4.752000000000e+05-4.656612873077e-08 1.285004916698e-01-3.725290298462e-08
    9.297857288963e-01 2.573437500000e+02-1.238942238963e+00-8.852868757518e-09
    1.028614274485e-10 1.000000000000e+00 2.088000000000e+03 0.000000000000e+00
    2.400000000000e+00 0.000000000000e+00-1.816079020500e-08 9.900000000000e+01
    4.680000000000e+05 4.000000000000e+00
24 20  1 17 12  0  0.0-7.702969014645e-06-5.684341886081e-13 0.000000000000e+00
    1.850000000000e+02 7.550000000000e+01 5.169858202488e-09-6.653747436431e-01
    3.887340426445e-06 9.454114595428e-03 8.672475814819e-06 5.153665508270e+03
    4.752000000000e+05 1.490116119385e-07 2.246543560460e+00 1.676380634308e-07
    9.369483952501e-01 1.989687500000e+02 6.485262780883e-01-8.538569951426e-09
    6.178828801592e-11 1.000000000000e+00 2.088000000000e+03 0.000000000000e+00
    3.400000000000e+00 0.000000000000e+00 2.793967723846e-09 1.850000000000e+02
    4.680000000000e+05 4.000000000000e+00
32 20  1 17 12  0  0.0 1.873602159321e-04 1.057287590811e-11 0.000000000000e+00
    9.700000000000e+01-3.234375000000e+01 4.614477925813e-09 2.064932461365e+00
   -1.652166247368e-06 3.436160390265e-03 1.082941889763e-05 5.153674789429e+03
    4.752000000000e+05-9.499490261078e-08 1.249182764996e+00-4.470348358154e-08
    9.565118392660e-01 1.696875000000e+02-2.542469655929e+00-8.067478900021e-09
   -2.667968274445e-10 1.000000000000e+00 2.088000000000e+03 0.000000000000e+00
    3.400000000000e+00 0.000000000000e+00 4.656612873077e-10 9.700000000000e+01
    4.680000000000e+05 4.000000000000e+00
28 20  1 17 12  0  0.0 7.447763346136e-04-2.160049916711e-12 0.000000000000e+00
    5.800000000000e+01 3.687500000000e+00 4.090527529748e-09 2.004240398029e+00
    1.676380634308e-08 1.883077656385e-02 4.725530743599e-06 5.153666618347e+03
    4.752000000000e+05 3.222376108170e-07-2.840234686238e+00-1.136213541031e-07
    9.795109302991e-01 2.932812500000e+02-1.420575910883e+00-7.795324706564e-09
   -2.146517982518e-10 1.000000000000e+00 2.088000000000e+03 0.000000000000e+00
    2.400000000000e+00 0.000000000000e+00-1.117587089539e-08 5.800000000000e+01
    4.680000000000e+05 4.000000000000e+00
18 20  1 17 12  0  0.0 1.139836385846e-04 2.387423592154e-12 0.000000000000e+00
    9.900000000000e+01 6.718750000000e+00 4.698767151084e-09-1.194417973194e+00
    6.631016731262e-07 1.563174335752e-02 8.117407560349e-06 5.153651754379e+03
    4.752000000000e+05-9.872019290924e-08-8.911056818770e-01 3.259629011154e-07
    9.570971674187e-01 2.258750000000e+02 1.451298420862e+00-8.321060891300e-09
    3.232277494475e-10 1.000000000000e+00 2.088000000000e+03 0.000000000000e+00
    3.400000000000e+00 6.300000000000e+01-5.587935447693e-09 9.900000000000e+01
    4.680000000000e+05 4.000000000000e+00
32 20  1 17 11 59 44.0 1.873592846096e-04 1.057287590811e-11 0.000000000000e+00
    5.000000000000e+00-3.234375000000e+01 4.614477925813e-09 2.062598615489e+00
   -1.652166247368e-06 3.436157247052e-03 1.082941889763e-05 5.153674783707e+03
    4.751840000000e+05-9.499490261078e-08 1.249182870326e+00-4.470348358154e-08
    9.565118260998e-01 1.696875000000e+02-2.542469489157e+00-8.067478900021e-09
   -2.671539851787e-10 1.000000000000e+00 2.088000000000e+03 0.000000000000e+00
    2.400000000000e+00 0.000000000000e+00 4.656612873077e-10 5.000000000000e+00
    4.703700000000e+05 4.000000000000e+00
 4 20  1 17 12  0  0.0-3.561517223716e-05-5.456968210638e-12 0.000000000000e+00
    1.890000000000e+02-2.359375000000e+01 4.574833417318e-09 3.900168082341e-01
   -1.244246959686e-06 4.647660534829e-04 1.006759703159e-05 5.153730424881e+03
    4.752000000000e+05-5.029141902924e-08 1.288277514181e+00-3.539025783539e-08
    9.596379357433e-01 1.811250000000e+02-2.725211987149e+00-8.053906906122e-09
   -2.378670509746e-10 1.000000000000e+00 2.088000000000e+03 0.000000000000e+00
    2.400000000000e+00 0.000000000000e+00-4.190951585770e-09 1.890000000000e+02
    4.704000000000e+05 4.000000000000e+00
